GLOBALSTAR M001         
1 25162U 98008A   25061.98237122 -.00000061  00000+0  27368-3 0  9995
2 25162  52.0026 282.3452 0002196  47.3470 101.6029 12.38208330230668
GLOBALSTAR M004         
1 25163U 98008B   25061.89802316 -.00000080  00000+0  13294-3 0  9993
2 25163  52.0025  18.4119 0003451  56.5878 337.1613 12.63388959248258
GLOBALSTAR M002         
1 25164U 98008C   25061.71224944 -.00000054  00000+0  44794-3 0  9990
2 25164  52.0004 147.1721 0000651 310.0165  50.0598 11.61508278171692
GLOBALSTAR M003         
1 25165U 98008D   25062.14569295 -.00000025  00000+0  68694-3 0  9993
2 25165  51.9988 102.2077 0008284  81.5937 312.5844 12.12073609220456
GLOBALSTAR M014         
1 25306U 98023A   25061.54572247 -.00000073  00000+0  86186-4 0  9991
2 25306  51.9836  73.0548 0001192 156.5495  16.7525 11.65478549178737
GLOBALSTAR M006         
1 25307U 98023B   25061.65451238 -.00000051  00000+0  51045-3 0  9991
2 25307  51.9927 121.2729 0003051 264.8614 265.8354 11.58172585204480
GLOBALSTAR M015         
1 25308U 98023C   25061.93105266 -.00000072  00000+0  41596-4 0  9994
2 25308  51.9791 214.1846 0011899 244.0384 293.3641 11.48858702181867
GLOBALSTAR M008         
1 25309U 98023D   25061.75688172 -.00000038  00000+0  45652-3 0  9995
2 25309  51.9962 146.6230 0001939 314.8280 196.2860 12.36063624224680
